STARLINK-31123          
1 58775U 24011L   26068.23965336  .00001211  00000+0  53020-4 0  9997
2 58775  53.1618  15.6065 0001045  65.6642 294.4468 15.30193616120207
HAWK-11C                
1 62381U 24247E   26068.51221537  .00009223  00000+0  33290-3 0  9992
2 62381  45.0045 114.8762 0005900 329.7040  30.3502 15.28848020 67743
